$$SOE
2461302.500000000, A.D. 2026-Sep-19 00:00:00.0000, -3.046763502757093E+08, -3.042686392655720E+08, 2.142370458508004E+07,
2461309.500000000, A.D. 2026-Sep-26 00:00:00.0000, -2.966305121678532E+08, -3.111684688969691E+08, 2.140337714421934E+07,
2461316.500000000, A.D. 2026-Oct-03 00:00:00.0000, -2.884041047283920E+08, -3.178788913024074E+08, 2.137002092933589E+07,
2461323.500000000, A.D. 2026-Oct-10 00:00:00.0000, -2.800012902268028E+08, -3.243948922441474E+08, 2.132359361773127E+07,
2461330.500000000, A.D. 2026-Oct-17 00:00:00.0000, -2.714263803897881E+08, -3.307115298248869E+08, 2.126406057205097E+07,
2461337.500000000, A.D. 2026-Oct-24 00:00:00.0000, -2.626838364049073E+08, -3.368239393333715E+08, 2.119139501206549E+07,
2461344.500000000, A.D. 2026-Oct-31 00:00:00.0000, -2.537782686794681E+08, -3.427273383528820E+08, 2.110557816279572E+07,
2461351.500000000, A.D. 2026-Nov-07 00:00:00.0000, -2.447144360074033E+08, -3.484170320542067E+08, 2.100659935370532E+07,
2461358.500000000, A.D. 2026-Nov-14 00:00:00.0000, -2.354972439349123E+08, -3.538884177806262E+08, 2.089445612282029E+07,
2461365.500000000, A.D. 2026-Nov-21 00:00:00.0000, -2.261317441277803E+08, -3.591369882368873E+08, 2.076915454735106E+07,
2461372.500000000, A.D. 2026-Nov-28 00:00:00.0000, -2.166231357290395E+08, -3.641583362839281E+08, 2.063070964610243E+07,
2461379.500000000, A.D. 2026-Dec-05 00:00:00.0000, -2.069767650789967E+08, -3.689481619905651E+08, 2.047914546778634E+07,
2461386.500000000, A.D. 2026-Dec-12 00:00:00.0000, -1.971981236256249E+08, -3.735022788253442E+08, 2.031449510430522E+07,
2461393.500000000, A.D. 2026-Dec-19 00:00:00.0000, -1.872928459053337E+08, -3.778166189741363E+08, 2.013680080248171E+07,
2461400.500000000, A.D. 2026-Dec-26 00:00:00.0000, -1.772667077287875E+08, -3.818872386422064E+08, 1.994611411600408E+07,
2461407.500000000, A.D. 2027-Jan-02 00:00:00.0000, -1.671256242880837E+08, -3.857103235218945E+08, 1.974249605613142E+07,
2461414.500000000, A.D. 2027-Jan-09 00:00:00.0000, -1.568756480608972E+08, -3.892821943961567E+08, 1.952601723143758E+07,
2461421.500000000, A.D. 2027-Jan-16 00:00:00.0000, -1.465229664699855E+08, -3.925993128598273E+08, 1.929675797349505E+07,
2461428.500000000, A.D. 2027-Jan-23 00:00:00.0000, -1.360738992471553E+08, -3.956582871884618E+08, 1.905480844054280E+07,
2461435.500000000, A.D. 2027-Jan-30 00:00:00.0000, -1.255348953098987E+08, -3.984558783918279E+08, 1.880026867748401E+07,
2461442.500000000, A.D. 2027-Feb-06 00:00:00.0000, -1.149125287223573E+08, -4.009890061004457E+08, 1.853324862042776E+07,
2461449.500000000, A.D. 2027-Feb-13 00:00:00.0000, -1.042134941977354E+08, -4.032547530529895E+08, 1.825386818697099E+07,
2461456.500000000, A.D. 2027-Feb-20 00:00:00.0000, -9.344460450282571E+07, -4.052503689617077E+08, 1.796225760351531E+07,
2461463.500000000, A.D. 2027-Feb-27 00:00:00.0000, -8.261278836533132E+07, -4.069732769556506E+08, 1.765855757801658E+07,
2461470.500000000, A.D. 2027-Mar-06 00:00:00.0000, -7.172508586390667E+07, -4.084210806663415E+08, 1.734291919779667E+07,
2461477.500000000, A.D. 2027-Mar-13 00:00:00.0000, -6.078864290108474E+07, -4.095915698920251E+08, 1.701550386612627E+07,
2461484.500000000, A.D. 2027-Mar-20 00:00:00.0000, -4.981070588882117E+07, -4.104827256575193E+08, 1.667648331219417E+07,
2461491.500000000, A.D. 2027-Mar-27 00:00:00.0000, -3.879861644422952E+07, -4.110927251989406E+08, 1.632603961003813E+07,
2461498.500000000, A.D. 2027-Apr-03 00:00:00.0000, -2.775980589110368E+07, -4.114199469013268E+08, 1.596436518273661E+07,
2461505.500000000, A.D. 2027-Apr-10 00:00:00.0000, -1.670178950413984E+07, -4.114629751485484E+08, 1.559166278705651E+07,
2461512.500000000, A.D. 2027-Apr-17 00:00:00.0000, -5.632160473517890E+06, -4.112206050853455E+08, 1.520814547472087E+07,
2461519.500000000, A.D. 2027-Apr-24 00:00:00.0000, 5.441416486421329E+06, -4.106918473407845E+08, 1.481403651778930E+07,
2461526.500000000, A.D. 2027-May-01 00:00:00.0000, 1.651121217803834E+07, -4.098759326715997E+08, 1.440956927297693E+07,
2461533.500000000, A.D. 2027-May-08 00:00:00.0000, 2.756944091047746E+07, -4.087723157613223E+08, 1.399498701781759E+07,
2461540.500000000, A.D. 2027-May-15 00:00:00.0000, 3.860826793357076E+07, -4.073806772040185E+08, 1.357054297359654E+07,
2461547.500000000, A.D. 2027-May-22 00:00:00.0000, 4.961981474314970E+07, -4.057009262447861E+08, 1.313650044614026E+07,
2461554.500000000, A.D. 2027-May-29 00:00:00.0000, 6.059616560548452E+07, -4.037332057267588E+08, 1.269313265616307E+07,
2461561.500000000, A.D. 2027-Jun-05 00:00:00.0000, 7.152937617626935E+07, -4.014778960971035E+08, 1.224072243380976E+07,
2461568.500000000, A.D. 2027-Jun-12 00:00:00.0000, 8.241148219499336E+07, -3.989356180251036E+08, 1.177956199684173E+07,
2461575.500000000, A.D. 2027-Jun-19 00:00:00.0000, 9.323450791036922E+07, -3.961072345519203E+08, 1.130995276646233E+07,
2461582.500000000, A.D. 2027-Jun-26 00:00:00.0000, 1.039904745014200E+08, -3.929938530180668E+08, 1.083220517388174E+07,
2461589.500000000, A.D. 2027-Jul-03 00:00:00.0000, 1.146714086099662E+08, -3.895968267450169E+08, 1.034663844627650E+07,
2461596.500000000, A.D. 2027-Jul-10 00:00:00.0000, 1.252693510038717E+08, -3.859177564466314E+08, 9.853580369528919E+06,
2461603.500000000, A.D. 2027-Jul-17 00:00:00.0000, 1.357763653897884E+08, -3.819584913939396E+08, 9.353367021324709E+06,
2461610.500000000, A.D. 2027-Jul-24 00:00:00.0000, 1.461845475144477E+08, -3.777211303825418E+08, 8.846342455473155E+06,
2461617.500000000, A.D. 2027-Jul-31 00:00:00.0000, 1.564860349480272E+08, -3.732080222563728E+08, 8.332858319646373E+06,
2461624.500000000, A.D. 2027-Aug-07 00:00:00.0000, 1.666730173294744E+08, -3.684217648276920E+08, 7.813273519893482E+06,
2461631.500000000, A.D. 2027-Aug-14 00:00:00.0000, 1.767377447513398E+08, -3.633652024389416E+08, 7.287954122934967E+06,
2461638.500000000, A.D. 2027-Aug-21 00:00:00.0000, 1.866725348799448E+08, -3.580414255226248E+08, 6.757273164969623E+06,
2461645.500000000, A.D. 2027-Aug-28 00:00:00.0000, 1.964697822199530E+08, -3.524537709499703E+08, 6.221610151063785E+06,
2461652.500000000, A.D. 2027-Sep-04 00:00:00.0000, 2.061219683195447E+08, -3.466058206633294E+08, 5.681350558577314E+06,
2461659.500000000, A.D. 2027-Sep-11 00:00:00.0000, 2.156216714967588E+08, -3.405013992520051E+08, 5.136885419160545E+06,
2461666.500000000, A.D. 2027-Sep-18 00:00:00.0000, 2.249615761953794E+08, -3.341445711205428E+08, 4.588610914516017E+06,
2461673.500000000, A.D. 2027-Sep-25 00:00:00.0000, 2.341344821742851E+08, -3.275396373270196E+08, 4.036927959156886E+06,
2461680.500000000, A.D. 2027-Oct-02 00:00:00.0000, 2.431333135801977E+08, -3.206911320651020E+08, 3.482241766147733E+06,
2461687.500000000, A.D. 2027-Oct-09 00:00:00.0000, 2.519511279008944E+08, -3.136038187968949E+08, 2.924961394016519E+06,
2461694.500000000, A.D. 2027-Oct-16 00:00:00.0000, 2.605811248369115E+08, -3.062826860947795E+08, 2.365499265164971E+06,
2461701.500000000, A.D. 2027-Oct-23 00:00:00.0000, 2.690166553280375E+08, -2.987329432027823E+08, 1.804270632258758E+06,
2461708.500000000, A.D. 2027-Oct-30 00:00:00.0000, 2.772512310876195E+08, -2.909600147154934E+08, 1.241693009281233E+06,
2461715.500000000, A.D. 2027-Nov-06 00:00:00.0000, 2.852785334595985E+08, -2.829695332586127E+08, 6.781857675443590E+05,
2461722.500000000, A.D. 2027-Nov-13 00:00:00.0000, 2.930924195893434E+08, -2.747673322605371E+08, 1.141699102644324E+05,
2461729.500000000, A.D. 2027-Nov-20 00:00:00.0000, 3.006869287861800E+08, -2.663594410130906E+08, -4.499324180762768E+05,
2461736.500000000, A.D. 2027-Nov-27 00:00:00.0000, 3.080562906731474E+08, -2.577520790709574E+08, -1.013698592455521E+06,
2461743.500000000, A.D. 2027-Dec-04 00:00:00.0000, 3.151949330788037E+08, -2.489516490925264E+08, -1.576706076501042E+06,
2461750.500000000, A.D. 2027-Dec-11 00:00:00.0000, 3.220974890984148E+08, -2.399647291026522E+08, -2.138532927204952E+06,
2461757.500000000, A.D. 2027-Dec-18 00:00:00.0000, 3.287588035791102E+08, -2.307980645320852E+08, -2.698758286938801E+06,
2461764.500000000, A.D. 2027-Dec-25 00:00:00.0000, 3.351739391645902E+08, -2.214585600522523E+08, -3.256962875621065E+06,
2461771.500000000, A.D. 2028-Jan-01 00:00:00.0000, 3.413381819284270E+08, -2.119532712105271E+08, -3.812729484157488E+06,
$$EOE